TRANSIT 16 [?]          
1 02807U 67048A   23074.14250522  .00000228  00000+0  33983-3 0  9999
2 02807  89.6659  27.1668 0021510 133.6791 237.9243 13.50371764747792
TRANSIT 17 [?]          
1 02965U 67092A   23073.81249150  .00000212  00000+0  29921-3 0  9991
2 02965  89.2250 102.4688 0045661 270.8175 263.7699 13.53083799735196
TRANSIT 18 [?]          
1 03133U 68012A   23073.83358887  .00000221  00000+0  32124-3 0  9991
2 03133  90.0056 271.7732 0074237 196.9527 174.0749 13.51212164433607
NNSS 19 [?]             
1 04507U 70067A   23074.51297032  .00000232  00000+0  31670-3 0  9997
2 04507  89.9350 237.4110 0171099 319.6677  39.1885 13.50893054587143
NNSS O-20 [?]           
1 06909U 73081A   23074.52594237  .00000392  00000+0  39417-3 0  9996
2 06909  89.8171 272.3253 0155319 204.4381 154.9364 13.70779806666424
TRANSAT [?]             
1 10457U 77106A   23073.89828704  .00000114  00000+0  16580-3 0  9997
2 10457  89.6661 113.7074 0024327 203.4412 330.4132 13.48717496232117
NOVA I [?]              
1 12458U 81044A   23074.50902733  .00000097  00000+0  20873-3 0  9990
2 12458  89.8742 104.6354 0014208 358.0896 128.3422 13.23094900 19460
NOVA 3 [?]              
1 15362U 84110A   23073.76536013  .00000119  00000+0  26329-3 0  9992
2 15362  90.1004  69.5713 0030812 214.6353 319.7213 13.22863720854245
OSCAR 30 [?]            
1 15935U 85066A   23074.03015840  .00000177  00000+0  30299-3 0  9995
2 15935  90.1739  82.6288 0169790  35.8430 348.9164 13.35802192830597
OSCAR 24 [?]            
1 15936U 85066B   23073.91670729  .00000180  00000+0  30801-3 0  9998
2 15936  90.1729  74.5168 0170587  41.9824  19.1963 13.35660520832420
POLAR BEAR [?]          
1 17070U 86088A   23074.44841701  .00000223  00000+0  22205-3 0  9990
2 17070  89.5780 225.3737 0037248 266.1749 165.3628 13.74922646822188
OSCAR 27 [?]            
1 18361U 87080A   23073.94562034  .00000161  00000+0  25336-3 0  9999
2 18361  90.3409  43.2789 0102915 218.3588 141.0210 13.44611665740919
OSCAR 29 [?]            
1 18362U 87080B   23073.92526718  .00000138  00000+0  21776-3 0  9995
2 18362  90.3422  43.6336 0104155 239.5897 174.1208 13.44192899740235
OSCAR 23 [?]            
1 19070U 88033A   23073.55355057  .00000175  00000+0  33186-3 0  9995
2 19070  90.3298 345.3644 0191600  92.6966  81.0160 13.27558850689287
OSCAR 32 [?]            
1 19071U 88033B   23073.70613719  .00000139  00000+0  25956-3 0  9991
2 19071  90.3298 345.4607 0189990  80.0994 310.2510 13.27737742689419
NOVA 11 [?]             
1 19223U 88052A   23074.51251661  .00000118  00000+0  25986-3 0  9995
2 19223  89.9710  80.1976 0028799 257.8540 219.2046 13.22774759677113
OSCAR 25 [?]            
1 19419U 88074A   23073.93744167  .00000172  00000+0  28221-3 0  9994
2 19419  90.0139  18.0732 0094665 229.0634 199.1436 13.42342409691725
OSCAR 31 [?]            
1 19420U 88074B   23074.40723583  .00000141  00000+0  22863-3 0  9990
2 19420  90.0152  18.2796 0093026 221.7210 255.7900 13.42347659692169
